OBJECT_NAME,OBJECT_ID,EPOCH,MEAN_MOTION,ECCENTRICITY,INCLINATION,RA_OF_ASC_NODE,ARG_OF_PERICENTER,MEAN_ANOMALY,EPHEMERIS_TYPE,CLASSIFICATION_TYPE,NORAD_CAT_ID,ELEMENT_SET_NO,REV_AT_EPOCH,BSTAR,MEAN_MOTION_DOT,MEAN_MOTION_DDOT
CUBEBUG-2 (LO-74),2013-066AA,2026-07-10T07:20:24.677952,14.93948233,.00561215,97.8906,140.3858,311.9936,47.6511,0,U,39440,999,68044,.18439435E-3,.1961E-4,0
FUNCUBE-1 (AO-73),2013-066AE,2026-07-09T20:35:35.418048,15.09776510,.00378182,97.8287,162.7825,124.9796,235.4993,0,U,39444,999,68308,.31713173E-3,.5139E-4,0
UWE-3,2013-066AG,2026-07-10T08:11:15.078336,14.97180749,.00475418,97.8693,147.5751,241.4844,118.1586,0,U,39446,999,68104,.17602772E-3,.2018E-4,0
UNISAT-6,2014-033C,2026-07-10T09:29:30.491520,14.88355319,.00445681,97.7899,343.7035,353.7824,6.2834,0,U,40012,999,64961,.13755491E-3,.1239E-4,0
DUCHIFAT-1,2014-033M,2026-07-10T03:16:50.086848,15.70000067,.00018466,98.0434,253.6137,252.3958,107.7101,0,U,40021,999,65934,.96017557E-3,.116517E-2,0
QB50P1,2014-033R,2026-07-10T06:43:55.731360,15.18618170,.00100557,98.0969,204.0508,139.1601,221.0386,0,U,40025,999,65653,.26646951E-3,.5444E-4,0
LILACSAT-2,2015-049K,2026-07-10T19:23:47.342112,15.52251201,.0008089,97.4633,229.5558,154.4435,205.7219,0,U,40908,999,59941,.2125E-3,.12818E-3,0
FOX-1A (AO-85),2015-058D,2026-07-10T11:49:16.348512,14.91070925,.01320106,64.7732,206.5515,47.5828,313.6362,0,U,40967,999,11704,.16251471E-3,.1725E-4,0
CAS-2T & KS-1Q,2016-066G,2026-07-10T03:57:26.754336,14.44763463,.0342489,98.3813,266.6381,59.9893,303.4819,0,U,41847,999,50811,.11781984E-3,.785E-5,0
RADFXSAT (FOX-1B),2017-073E,2026-07-10T10:09:49.968000,15.13024016,.01480142,97.4686,58.1651,248.1091,110.4347,0,U,43017,999,46890,.20168401E-3,.4588E-4,0
DIWATA-2B,2018-084H,2026-07-10T20:14:14.741088,15.00553552,.0013029,98.1221,29.0871,97.7176,262.5527,0,U,43678,999,41976,.13728E-3,.1669E-4,0
ES'HAIL 2,2018-090A,2026-07-10T20:39:38.577024,1.00269039,.0002189,0.0243,33.7139,126.4913,104.2859,0,U,43700,999,2791,0,0,0
FOX-1CLIFF (AO-95),2018-099N,2026-07-10T03:28:44.388480,15.27204994,.00069822,97.4377,251.3120,261.2710,98.7738,0,U,43770,999,41672,.29948589E-3,.7917E-4,0
ITASAT,2018-099AE,2026-07-10T03:22:39.328608,15.19343715,.00107302,97.4020,242.1964,270.9097,89.0908,0,U,43786,999,41639,.21844873E-3,.4555E-4,0
JY1SAT (JO-97),2018-099AX,2026-07-10T02:55:50.056032,15.34409607,.00064067,97.4121,254.0449,173.8802,186.2520,0,U,43803,999,41714,.40848447E-3,.13549E-3,0
UWE-4,2018-111E,2026-07-09T06:35:43.813824,15.47549208,.00052707,97.5841,119.7053,218.3666,141.7210,0,U,43880,999,41419,.53767723E-3,.2764E-3,0
TIANYAN 01,2019-093C,2026-07-10T19:20:20.121216,14.86554848,.0013959,97.7521,263.4612,15.4844,344.6796,0,U,44881,999,35492,.29601E-4,.209E-5,0
RS-44 & BREEZE-KM R/B,2019-096E,2026-07-10T07:16:24.451392,12.79748953,.02185813,82.5238,324.3444,90.3753,272.2396,0,U,44909,999,30530,-.16997626E-4,.9E-7,0
SALSAT,2020-068K,2026-07-10T10:17:36.763872,15.30129687,.00086995,97.8857,195.9138,210.5134,149.5600,0,U,46495,999,31891,.18731159E-3,.5381E-4,0
XW-3 (CAS-9),2021-131B,2026-07-10T20:45:54.042912,14.41379298,.0004843,98.4980,284.1276,41.7388,318.4169,0,U,50466,999,23852,.78894E-4,.211E-5,0
GREENCUBE (IO-117),2022-080E,2026-07-10T05:14:37.423680,6.42583278,.00090084,70.1422,290.2367,284.7282,75.2379,0,U,53109,999,9354,0,-.3E-7,0
UMKA 1 (RS40S),2023-091G,2026-07-10T20:15:36.683712,15.21090340,.0013464,97.5043,250.4523,43.8429,316.3872,0,U,57172,999,16760,.17534E-3,.3836E-4,0
CUBESX-HSE 3 (RS42S),2023-091N,2026-07-10T19:49:10.892928,15.31814500,.0010139,97.5085,257.7192,17.6413,342.5178,0,U,57178,999,16804,.26795E-3,.8164E-4,0
MONITOR-3 (RS58S),2023-091Q,2026-07-10T20:06:33.595776,15.28318212,.0011479,97.5076,255.4629,24.8166,335.3623,0,U,57180,999,16790,.22932E-3,.626E-4,0
MONITOR-4 (RS57S),2023-091S,2026-07-10T19:34:30.474336,15.28403837,.0011499,97.5070,255.4129,25.2400,334.9399,0,U,57182,999,16790,.22368E-3,.612E-4,0
MONITOR-2 (RS39S),2023-091U,2026-07-10T19:54:41.768640,15.19129254,.0011823,97.5062,249.9609,38.3023,321.9049,0,U,57184,999,16754,.1448E-3,.2977E-4,0
SVYATOBOR 1 (RS60S),2023-091X,2026-07-10T20:23:24.110304,15.27016906,.0009187,97.5082,255.8017,19.8533,340.3061,0,U,57187,999,16792,.21373E-3,.5597E-4,0
VIZARD-METEO (RS38S),2023-091Z,2026-07-10T18:56:56.681952,15.36784473,.0006058,97.5086,261.7582,357.6848,2.4367,0,U,57189,999,16831,.32313E-3,.11541E-3,0
POLYTECH-UNIVERSE 3 (RS46S),2023-091AB,2026-07-10T18:54:24.401952,15.19340931,.001646,97.5039,249.4234,52.1167,308.1553,0,U,57191,999,16753,.16167E-3,.3358E-4,0
UTMN 2 (RS27S),2023-091AP,2026-07-10T19:56:07.777248,15.32633836,.0007197,97.5081,259.3867,6.4517,353.6816,0,U,57203,999,16816,.25312E-3,.7902E-4,0
